[{"OBJECT_NAME":"STARLINK-34792","OBJECT_ID":"2025-167H","EPOCH":"2026-03-09T07:03:26.373600","MEAN_MOTION":15.30187314,"ECCENTRICITY":0.00013155,"INCLINATION":53.1617,"RA_OF_ASC_NODE":28.8965,"ARG_OF_PERICENTER":113.0373,"MEAN_ANOMALY":247.0767,"EPHEMERIS_TYPE":0,"CLASSIFICATION_TYPE":"U","NORAD_CAT_ID":65085,"ELEMENT_SET_NO":999,"REV_AT_EPOCH":3341,"BSTAR":0.0012552619,"MEAN_MOTION_DOT":0.00036989,"MEAN_MOTION_DDOT":0},{"OBJECT_NAME":"OBJECT D","OBJECT_ID":"2021-102D","EPOCH":"2026-03-09T14:47:14.426880","MEAN_MOTION":15.2846442,"ECCENTRICITY":0.0009157,"INCLINATION":97.3342,"RA_OF_ASC_NODE":112.2633,"ARG_OF_PERICENTER":187.6206,"MEAN_ANOMALY":172.4897,"EPHEMERIS_TYPE":0,"CLASSIFICATION_TYPE":"U","NORAD_CAT_ID":49398,"ELEMENT_SET_NO":999,"REV_AT_EPOCH":23880,"BSTAR":0.00046011,"MEAN_MOTION_DOT":0.00012697,"MEAN_MOTION_DDOT":0}]
